{"type": "FeatureCollection", "features": [ {"type": "Feature", "properties": {"norad_id": 38054, "name": "COSMOS 2251 DEB", "group": "cosmos-2251-debris", "lat": -25.436448501519205, "lon": -114.47208049358262, "alt_km": 1085.3408437433454, "timestamp": "2025-12-20T07:33:51.210960+00:00", "meta": {"OBJECT_NAME": "COSMOS 2251 DEB", "OBJECT_ID": "1993-036BRL", "EPOCH": "2025-12-19T04:17:14.300736", "MEAN_MOTION": 13.62371953, "ECCENTRICITY": 0.03577355, "INCLINATION": 73.9533, "RA_OF_ASC_NODE": 255.2542, "ARG_OF_PERICENTER": 232.0768, "MEAN_ANOMALY": 285.3471, "EPHEMERIS_TYPE": 0, "CLASSIFICATION_TYPE": "U", "NORAD_CAT_ID": 38054, "ELEMENT_SET_NO": 999, "REV_AT_EPOCH": 67267, "BSTAR": 0.0015341979, "MEAN_MOTION_DOT": 1.803e-05, "MEAN_MOTION_DDOT": 0}, "tle": {"line1": "1 38054U 93036BRL 25353.17863774  .00001803  00000+0  15342-2 0  9990", "line2": "2 38054  73.9533 255.2542 0357735 232.0768 285.3471 13.62371953672673"}}, "geometry": {"type": "Point", "coordinates": [-114.47208049358262, -25.436448501519205]}}, {"type": "Feature", "properties": {"norad_id": 38055, "name": "COSMOS 2251 DEB", "group": "cosmos-2251-debris", "lat": 32.93866324957032, "lon": 1.1750989031648496, "alt_km": 682.1530686627493, "timestamp": "2025-12-20T07:33:51.210971+00:00", "meta": {"OBJECT_NAME": "COSMOS 2251 DEB", "OBJECT_ID": "1993-036BRM", "EPOCH": "2025-12-17T08:11:30.244992", "MEAN_MOTION": 14.7702463, "ECCENTRICITY": 0.00659373, "INCLINATION": 74.0086, "RA_OF_ASC_NODE": 197.7207, "ARG_OF_PERICENTER": 324.2561, "MEAN_ANOMALY": 214.9327, "EPHEMERIS_TYPE": 0, "CLASSIFICATION_TYPE": "U", "NORAD_CAT_ID": 38055, "ELEMENT_SET_NO": 999, "REV_AT_EPOCH": 60750, "BSTAR": 0.00054119161, "MEAN_MOTION_DOT": 3.922e-05, "MEAN_MOTION_DDOT": 0}, "tle": {"line1": "1 38055U 93036BRM 25351.34132228  .00003922  00000+0  54119-3 0  9991", "line2": "2 38055  74.0086 197.7207 0065937 324.2561 214.9327 14.77024630607504"}}, "geometry": {"type": "Point", "coordinates": [1.1750989031648496, 32.93866324957032]}}, {"type": "Feature", "properties": {"norad_id": 38060, "name": "COSMOS 2251 DEB", "group": "cosmos-2251-debris", "lat": 11.749129066165633, "lon": -75.82174730859126, "alt_km": 641.3571122187623, "timestamp": "2025-12-20T07:33:51.210980+00:00", "meta": {"OBJECT_NAME": "COSMOS 2251 DEB", "OBJECT_ID": "1993-036BRS", "EPOCH": "2025-12-18T12:51:56.479104", "MEAN_MOTION": 14.63889679, "ECCENTRICITY": 0.00583817, "INCLINATION": 74.0432, "RA_OF_ASC_NODE": 284.1799, "ARG_OF_PERICENTER": 28.687, "MEAN_ANOMALY": 331.7487, "EPHEMERIS_TYPE": 0, "CLASSIFICATION_TYPE": "U", "NORAD_CAT_ID": 38060, "ELEMENT_SET_NO": 999, "REV_AT_EPOCH": 72049, "BSTAR": 0.00043764509, "MEAN_MOTION_DOT": 2.314e-05, "MEAN_MOTION_DDOT": 0}, "tle": {"line1": "1 38060U 93036BRS 25352.53607036  .00002314  00000+0  43765-3 0  9992", "line2": "2 38060  74.0432 284.1799 0058381  28.6870 331.7487 14.63889679720491"}}, "geometry": {"type": "Point", "coordinates": [-75.82174730859126, 11.749129066165633]}}, {"type": "Feature", "properties": {"norad_id": 38062, "name": "COSMOS 2251 DEB", "group": "cosmos-2251-debris", "lat": 64.41951795783602, "lon": 58.36378532939555, "alt_km": 571.6049157822736, "timestamp": "2025-12-20T07:33:51.210990+00:00", "meta": {"OBJECT_NAME": "COSMOS 2251 DEB", "OBJECT_ID": "1993-036BRU", "EPOCH": "2025-12-17T02:04:28.793568", "MEAN_MOTION": 14.95076851, "ECCENTRICITY": 0.00127653, "INCLINATION": 74.0085, "RA_OF_ASC_NODE": 281.6883, "ARG_OF_PERICENTER": 50.5623, "MEAN_ANOMALY": 328.1429, "EPHEMERIS_TYPE": 0, "CLASSIFICATION_TYPE": "U", "NORAD_CAT_ID": 38062, "ELEMENT_SET_NO": 999, "REV_AT_EPOCH": 63095, "BSTAR": 0.0018936514, "MEAN_MOTION_DOT": 0.00020809, "MEAN_MOTION_DDOT": 0}, "tle": {"line1": "1 38062U 93036BRU 25351.08644437  .00020809  00000+0  18937-2 0  9990", "line2": "2 38062  74.0085 281.6883 0012765  50.5623 328.1429 14.95076851630951"}}, "geometry": {"type": "Point", "coordinates": [58.36378532939555, 64.41951795783602]}}, {"type": "Feature", "properties": {"norad_id": 38064, "name": "COSMOS 2251 DEB", "group": "cosmos-2251-debris", "lat": 50.65787333281279, "lon": 130.2120620965157, "alt_km": 733.2312018804005, "timestamp": "2025-12-20T07:33:51.211000+00:00", "meta": {"OBJECT_NAME": "COSMOS 2251 DEB", "OBJECT_ID": "1993-036BRW", "EPOCH": "2025-12-19T18:07:41.080512", "MEAN_MOTION": 14.56354752, "ECCENTRICITY": 0.0047209, "INCLINATION": 74.0226, "RA_OF_ASC_NODE": 110.8167, "ARG_OF_PERICENTER": 229.1842, "MEAN_ANOMALY": 130.5224, "EPHEMERIS_TYPE": 0, "CLASSIFICATION_TYPE": "U", "NORAD_CAT_ID": 38064, "ELEMENT_SET_NO": 999, "REV_AT_EPOCH": 71967, "BSTAR": 0.00064457855, "MEAN_MOTION_DOT": 2.872e-05, "MEAN_MOTION_DDOT": 0}, "tle": {"line1": "1 38064U 93036BRW 25353.75533658  .00002872  00000+0  64458-3 0  9990", "line2": "2 38064  74.0226 110.8167 0047209 229.1842 130.5224 14.56354752719677"}}, "geometry": {"type": "Point", "coordinates": [130.2120620965157, 50.65787333281279]}}, {"type": "Feature", "properties": {"norad_id": 38067, "name": "COSMOS 2251 DEB", "group": "cosmos-2251-debris", "lat": 13.630289160477993, "lon": 76.02272179915208, "alt_km": 714.4003143134978, "timestamp": "2025-12-20T07:33:51.211010+00:00", "meta": {"OBJECT_NAME": "COSMOS 2251 DEB", "OBJECT_ID": "1993-036BRZ", "EPOCH": "2025-12-14T13:35:01.091904", "MEAN_MOTION": 14.61135602, "ECCENTRICITY": 0.00694851, "INCLINATION": 74.0173, "RA_OF_ASC_NODE": 271.0073, "ARG_OF_PERICENTER": 58.167, "MEAN_ANOMALY": 117.7661, "EPHEMERIS_TYPE": 0, "CLASSIFICATION_TYPE": "U", "NORAD_CAT_ID": 38067, "ELEMENT_SET_NO": 999, "REV_AT_EPOCH": 62582, "BSTAR": 0.00041702153, "MEAN_MOTION_DOT": 2.092e-05, "MEAN_MOTION_DDOT": 0}, "tle": {"line1": "1 38067U 93036BRZ 25348.56598486  .00002092  00000+0  41702-3 0  9997", "line2": "2 38067  74.0173 271.0073 0069485  58.1670 117.7661 14.61135602625828"}}, "geometry": {"type": "Point", "coordinates": [76.02272179915208, 13.630289160477993]}}, {"type": "Feature", "properties": {"norad_id": 38068, "name": "COSMOS 2251 DEB", "group": "cosmos-2251-debris", "lat": -35.18485431261446, "lon": -77.31630956987898, "alt_km": 768.5838287095921, "timestamp": "2025-12-20T07:33:51.211020+00:00", "meta": {"OBJECT_NAME": "COSMOS 2251 DEB", "OBJECT_ID": "1993-036BSA", "EPOCH": "2025-11-26T00:12:22.263264", "MEAN_MOTION": 14.35960004, "ECCENTRICITY": 0.00240903, "INCLINATION": 74.0219, "RA_OF_ASC_NODE": 338.9788, "ARG_OF_PERICENTER": 72.1007, "MEAN_ANOMALY": 288.2769, "EPHEMERIS_TYPE": 0, "CLASSIFICATION_TYPE": "U", "NORAD_CAT_ID": 38068, "ELEMENT_SET_NO": 999, "REV_AT_EPOCH": 66406, "BSTAR": 0.00028750999, "MEAN_MOTION_DOT": 8.11e-06, "MEAN_MOTION_DDOT": 0}, "tle": {"line1": "1 38068U 93036BSA 25330.00859101  .00000811  00000+0  28751-3 0  9998", "line2": "2 38068  74.0219 338.9788 0024090  72.1007 288.2769 14.35960004664064"}}, "geometry": {"type": "Point", "coordinates": [-77.31630956987898, -35.18485431261446]}}, {"type": "Feature", "properties": {"norad_id": 38197, "name": "COSMOS 2251 DEB", "group": "cosmos-2251-debris", "lat": -73.05637349354595, "lon": -88.87422322916396, "alt_km": 606.216714501159, "timestamp": "2025-12-20T07:33:51.211030+00:00", "meta": {"OBJECT_NAME": "COSMOS 2251 DEB", "OBJECT_ID": "1993-036BSM", "EPOCH": "2025-12-19T05:53:32.639424", "MEAN_MOTION": 14.74334957, "ECCENTRICITY": 0.0125223, "INCLINATION": 73.937, "RA_OF_ASC_NODE": 344.2677, "ARG_OF_PERICENTER": 220.1663, "MEAN_ANOMALY": 139.0206, "EPHEMERIS_TYPE": 0, "CLASSIFICATION_TYPE": "U", "NORAD_CAT_ID": 38197, "ELEMENT_SET_NO": 999, "REV_AT_EPOCH": 85851, "BSTAR": 0.0022874, "MEAN_MOTION_DOT": 0.00017202, "MEAN_MOTION_DDOT": 0}, "tle": {"line1": "1 38197U 93036BSM 25353.24551666  .00017202  00000+0  22874-2 0  9998", "line2": "2 38197  73.9370 344.2677 0125223 220.1663 139.0206 14.74334957858512"}}, "geometry": {"type": "Point", "coordinates": [-88.87422322916396, -73.05637349354595]}}, {"type": "Feature", "properties": {"norad_id": 38199, "name": "COSMOS 2251 DEB", "group": "cosmos-2251-debris", "lat": -36.798808229535496, "lon": 37.31265701239517, "alt_km": 757.2791443878623, "timestamp": "2025-12-20T07:33:51.211039+00:00", "meta": {"OBJECT_NAME": "COSMOS 2251 DEB", "OBJECT_ID": "1993-036BSP", "EPOCH": "2025-12-18T20:33:26.116992", "MEAN_MOTION": 13.64802181, "ECCENTRICITY": 0.0369926, "INCLINATION": 73.9559, "RA_OF_ASC_NODE": 52.1388, "ARG_OF_PERICENTER": 337.4029, "MEAN_ANOMALY": 21.1146, "EPHEMERIS_TYPE": 0, "CLASSIFICATION_TYPE": "U", "NORAD_CAT_ID": 38199, "ELEMENT_SET_NO": 999, "REV_AT_EPOCH": 61105, "BSTAR": 0.00049100524, "MEAN_MOTION_DOT": 6.08e-06, "MEAN_MOTION_DDOT": 0}, "tle": {"line1": "1 38199U 93036BSP 25352.85655228  .00000608  00000+0  49101-3 0  9990", "line2": "2 38199  73.9559  52.1388 0369926 337.4029  21.1146 13.64802181611052"}}, "geometry": {"type": "Point", "coordinates": [37.31265701239517, -36.798808229535496]}}, {"type": "Feature", "properties": {"norad_id": 38208, "name": "COSMOS 2251 DEB", "group": "cosmos-2251-debris", "lat": 46.64326110139333, "lon": -133.81359947279705, "alt_km": 610.6443843210054, "timestamp": "2025-12-20T07:33:51.211050+00:00", "meta": {"OBJECT_NAME": "COSMOS 2251 DEB", "OBJECT_ID": "1993-036BSY", "EPOCH": "2025-12-16T00:13:39.722592", "MEAN_MOTION": 14.84023361, "ECCENTRICITY": 0.00017369, "INCLINATION": 74.0064, "RA_OF_ASC_NODE": 72.4172, "ARG_OF_PERICENTER": 150.2716, "MEAN_ANOMALY": 26.1687, "EPHEMERIS_TYPE": 0, "CLASSIFICATION_TYPE": "U", "NORAD_CAT_ID": 38208, "ELEMENT_SET_NO": 999, "REV_AT_EPOCH": 71207, "BSTAR": 0.0016436813, "MEAN_MOTION_DOT": 0.00013687, "MEAN_MOTION_DDOT": 0}, "tle": {"line1": "1 38208U 93036BSY 25350.00948753  .00013687  00000+0  16437-2 0  9990", "line2": "2 38208  74.0064  72.4172 0001736 150.2716  26.1687 14.84023361712075"}}, "geometry": {"type": "Point", "coordinates": [-133.81359947279705, 46.64326110139333]}}]}